{
  "type": "FeatureCollection",
  "features": [
    {
      "type": "Feature",
      "properties": {
        "norad_id": 30306,
        "name": "FENGYUN 1C DEB",
        "group": "fengyun-1c-debris",
        "lat": -37.09120032104485,
        "lon": 48.21483155192138,
        "alt_km": 723.3573639042552,
        "timestamp": "2025-12-26T19:22:39.182202+00:00",
        "meta_object_name": "FENGYUN 1C DEB",
        "meta_object_id": "1999-025ZT",
        "meta_epoch": "2025-12-25T20:00:41.400000",
        "meta_mean_motion": 14.28266969,
        "meta_eccentricity": 0.0112871,
        "meta_inclination": 98.5854,
        "meta_ra_of_asc_node": 40.6987,
        "meta_arg_of_pericenter": 318.7976,
        "meta_mean_anomaly": 40.4726,
        "meta_ephemeris_type": 0,
        "meta_classification_type": "U",
        "meta_norad_cat_id": 30306,
        "meta_element_set_no": 999,
        "meta_rev_at_epoch": 97868,
        "meta_bstar": 0.00095479,
        "meta_mean_motion_dot": 2.505e-05,
        "meta_mean_motion_ddot": 0,
        "tle_line1": "1 30306U 99025ZT  25359.83381250  .00002505  00000+0  95479-3 0  9999",
        "tle_line2": "2 30306  98.5854  40.6987 0112871 318.7976  40.4726 14.28266969978682"
      },
      "geometry": {
        "type": "Point",
        "coordinates": [
          48.21483155192138,
          -37.09120032104485
        ]
      }
    },
    {
      "type": "Feature",
      "properties": {
        "norad_id": 30309,
        "name": "FENGYUN 1C DEB",
        "group": "fengyun-1c-debris",
        "lat": -80.50834700041979,
        "lon": 134.32725630633524,
        "alt_km": 955.6284915880287,
        "timestamp": "2025-12-26T19:22:39.182213+00:00",
        "meta_object_name": "FENGYUN 1C DEB",
        "meta_object_id": "1999-025ZW",
        "meta_epoch": "2025-12-26T14:38:07.775808",
        "meta_mean_motion": 13.935311,
        "meta_eccentricity": 0.00938053,
        "meta_inclination": 99.2242,
        "meta_ra_of_asc_node": 57.7388,
        "meta_arg_of_pericenter": 154.3805,
        "meta_mean_anomaly": 206.2047,
        "meta_ephemeris_type": 0,
        "meta_classification_type": "U",
        "meta_norad_cat_id": 30309,
        "meta_element_set_no": 999,
        "meta_rev_at_epoch": 96226,
        "meta_bstar": 0.00031571734,
        "meta_mean_motion_dot": 3.85e-06,
        "meta_mean_motion_ddot": 0,
        "tle_line1": "1 30309U 99025ZW  25360.60981222  .00000385  00000+0  31572-3 0  9992",
        "tle_line2": "2 30309  99.2242  57.7388 0093805 154.3805 206.2047 13.93531100962266"
      },
      "geometry": {
        "type": "Point",
        "coordinates": [
          134.32725630633524,
          -80.50834700041979
        ]
      }
    },
    {
      "type": "Feature",
      "properties": {
        "norad_id": 30310,
        "name": "FENGYUN 1C DEB",
        "group": "fengyun-1c-debris",
        "lat": -39.8854595858677,
        "lon": -167.4161660606385,
        "alt_km": 889.0439520052978,
        "timestamp": "2025-12-26T19:22:39.182223+00:00",
        "meta_object_name": "FENGYUN 1C DEB",
        "meta_object_id": "1999-025ZX",
        "meta_epoch": "2025-12-23T18:42:17.307936",
        "meta_mean_motion": 14.0841603,
        "meta_eccentricity": 0.02404585,
        "meta_inclination": 98.6639,
        "meta_ra_of_asc_node": 16.993,
        "meta_arg_of_pericenter": 326.1615,
        "meta_mean_anomaly": 32.4407,
        "meta_ephemeris_type": 0,
        "meta_classification_type": "U",
        "meta_norad_cat_id": 30310,
        "meta_element_set_no": 999,
        "meta_rev_at_epoch": 96887,
        "meta_bstar": 0.00058910425,
        "meta_mean_motion_dot": 1.271e-05,
        "meta_mean_motion_ddot": 0,
        "tle_line1": "1 30310U 99025ZX  25357.77936699  .00001271  00000+0  58910-3 0  9996",
        "tle_line2": "2 30310  98.6639  16.9930 0240458 326.1615  32.4407 14.08416030968870"
      },
      "geometry": {
        "type": "Point",
        "coordinates": [
          -167.4161660606385,
          -39.8854595858677
        ]
      }
    },
    {
      "type": "Feature",
      "properties": {
        "norad_id": 30311,
        "name": "FENGYUN 1C DEB",
        "group": "fengyun-1c-debris",
        "lat": -38.646103748395866,
        "lon": 103.37028087796818,
        "alt_km": 1092.6545725770711,
        "timestamp": "2025-12-26T19:22:39.182234+00:00",
        "meta_object_name": "FENGYUN 1C DEB",
        "meta_object_id": "1999-025ZY",
        "meta_epoch": "2025-12-26T05:37:54.923808",
        "meta_mean_motion": 13.77901049,
        "meta_eccentricity": 0.01656829,
        "meta_inclination": 99.1387,
        "meta_ra_of_asc_node": 95.4239,
        "meta_arg_of_pericenter": 161.3361,
        "meta_mean_anomaly": 199.3965,
        "meta_ephemeris_type": 0,
        "meta_classification_type": "U",
        "meta_norad_cat_id": 30311,
        "meta_element_set_no": 999,
        "meta_rev_at_epoch": 95146,
        "meta_bstar": 0.00040118235,
        "meta_mean_motion_dot": 4.03e-06,
        "meta_mean_motion_ddot": 0,
        "tle_line1": "1 30311U 99025ZY  25360.23466347  .00000403  00000+0  40118-3 0  9997",
        "tle_line2": "2 30311  99.1387  95.4239 0165682 161.3361 199.3965 13.77901049951466"
      },
      "geometry": {
        "type": "Point",
        "coordinates": [
          103.37028087796818,
          -38.646103748395866
        ]
      }
    },
    {
      "type": "Feature",
      "properties": {
        "norad_id": 30312,
        "name": "FENGYUN 1C DEB",
        "group": "fengyun-1c-debris",
        "lat": -74.30714438842749,
        "lon": -133.03762068354098,
        "alt_km": 744.8491260548471,
        "timestamp": "2025-12-26T19:22:39.182244+00:00",
        "meta_object_name": "FENGYUN 1C DEB",
        "meta_object_id": "1999-025ZZ",
        "meta_epoch": "2025-12-26T05:09:43.799328",
        "meta_mean_motion": 14.46048664,
        "meta_eccentricity": 0.00119678,
        "meta_inclination": 98.8665,
        "meta_ra_of_asc_node": 80.0958,
        "meta_arg_of_pericenter": 175.3281,
        "meta_mean_anomaly": 239.8499,
        "meta_ephemeris_type": 0,
        "meta_classification_type": "U",
        "meta_norad_cat_id": 30312,
        "meta_element_set_no": 999,
        "meta_rev_at_epoch": 98115,
        "meta_bstar": 0.0024594101,
        "meta_mean_motion_dot": 8.74e-05,
        "meta_mean_motion_ddot": 0,
        "tle_line1": "1 30312U 99025ZZ  25360.21509027  .00008740  00000+0  24594-2 0  9990",
        "tle_line2": "2 30312  98.8665  80.0958 0011967 175.3281 239.8499 14.46048664981155"
      },
      "geometry": {
        "type": "Point",
        "coordinates": [
          -133.03762068354098,
          -74.30714438842749
        ]
      }
    },
    {
      "type": "Feature",
      "properties": {
        "norad_id": 30313,
        "name": "FENGYUN 1C DEB",
        "group": "fengyun-1c-debris",
        "lat": 27.959763222316766,
        "lon": 82.38821600469836,
        "alt_km": 808.0926695154785,
        "timestamp": "2025-12-26T19:22:39.182254+00:00",
        "meta_object_name": "FENGYUN 1C DEB",
        "meta_object_id": "1999-025AAA",
        "meta_epoch": "2025-12-26T12:34:39.127872",
        "meta_mean_motion": 14.25559137,
        "meta_eccentricity": 0.00570994,
        "meta_inclination": 98.874,
        "meta_ra_of_asc_node": 86.8585,
        "meta_arg_of_pericenter": 295.0773,
        "meta_mean_anomaly": 79.4429,
        "meta_ephemeris_type": 0,
        "meta_classification_type": "U",
        "meta_norad_cat_id": 30313,
        "meta_element_set_no": 999,
        "meta_rev_at_epoch": 97286,
        "meta_bstar": 0.0017511188,
        "meta_mean_motion_dot": 4.17e-05,
        "meta_mean_motion_ddot": 0,
        "tle_line1": "1 30313U 99025AAA 25360.52406398  .00004170  00000+0  17511-2 0  9996",
        "tle_line2": "2 30313  98.8740  86.8585 0057099 295.0773  79.4429 14.25559137972860"
      },
      "geometry": {
        "type": "Point",
        "coordinates": [
          82.38821600469836,
          27.959763222316766
        ]
      }
    },
    {
      "type": "Feature",
      "properties": {
        "norad_id": 30314,
        "name": "FENGYUN 1C DEB",
        "group": "fengyun-1c-debris",
        "lat": -77.17262727239725,
        "lon": -29.816715237704827,
        "alt_km": 840.7184984581118,
        "timestamp": "2025-12-26T19:22:39.182265+00:00",
        "meta_object_name": "FENGYUN 1C DEB",
        "meta_object_id": "1999-025AAB",
        "meta_epoch": "2025-12-26T07:50:43.276992",
        "meta_mean_motion": 14.01238587,
        "meta_eccentricity": 0.01425023,
        "meta_inclination": 98.3817,
        "meta_ra_of_asc_node": 190.095,
        "meta_arg_of_pericenter": 319.4852,
        "meta_mean_anomaly": 39.5775,
        "meta_ephemeris_type": 0,
        "meta_classification_type": "U",
        "meta_norad_cat_id": 30314,
        "meta_element_set_no": 999,
        "meta_rev_at_epoch": 96299,
        "meta_bstar": 0.0011533154,
        "meta_mean_motion_dot": 1.855e-05,
        "meta_mean_motion_ddot": 0,
        "tle_line1": "1 30314U 99025AAB 25360.32688978  .00001855  00000+0  11533-2 0  9996",
        "tle_line2": "2 30314  98.3817 190.0950 0142502 319.4852  39.5775 14.01238587962999"
      },
      "geometry": {
        "type": "Point",
        "coordinates": [
          -29.816715237704827,
          -77.17262727239725
        ]
      }
    }
  ]
}